{
    "CCSDS_OMM_VERS": "3.0",
    "COMMENT": "GENERATED VIA SPACE-TRACK.ORG API",
    "CREATION_DATE": "2025-11-22T18:56:57",
    "ORIGINATOR": "18 SPCS",
    "OBJECT_NAME": "NAVSTAR 68 (USA 242)",
    "OBJECT_ID": "2013-023A",
    "CENTER_NAME": "EARTH",
    "REF_FRAME": "TEME",
    "TIME_SYSTEM": "UTC",
    "MEAN_ELEMENT_THEORY": "SGP4",
    "EPOCH": "2025-11-21T18:35:57.353568",
    "MEAN_MOTION": "2.00565301",
    "ECCENTRICITY": "0.01366164",
    "INCLINATION": "54.6704",
    "RA_OF_ASC_NODE": "277.4204",
    "ARG_OF_PERICENTER": "48.3895",
    "MEAN_ANOMALY": "312.7623",
    "EPHEMERIS_TYPE": "0",
    "CLASSIFICATION_TYPE": "U",
    "NORAD_CAT_ID": "39166",
    "ELEMENT_SET_NO": "999",
    "REV_AT_EPOCH": "9172",
    "BSTAR": "0.00000000000000",
    "MEAN_MOTION_DOT": "-0.00000033",
    "MEAN_MOTION_DDOT": "0.0000000000000",
    "SEMIMAJOR_AXIS": "26560.198",
    "PERIOD": "717.971",
    "APOAPSIS": "20544.919",
    "PERIAPSIS": "19819.207",
    "OBJECT_TYPE": "PAYLOAD",
    "RCS_SIZE": "LARGE",
    "COUNTRY_CODE": "US",
    "LAUNCH_DATE": "2013-05-15",
    "SITE": "AFETR",
    "DECAY_DATE": null,
    "FILE": "4894246",
    "GP_ID": "303251262",
    "TLE_LINE0": "0 NAVSTAR 68 (USA 242)",
    "TLE_LINE1": "1 39166U 13023A   25325.77496937 -.00000033  00000-0  00000-0 0  9990",
    "TLE_LINE2": "2 39166  54.6704 277.4204 0136616  48.3895 312.7623  2.00565301 91724"
}